{
  "type": "FeatureCollection",
  "features": [
    {
      "type": "Feature",
      "properties": {
        "norad_id": 36058,
        "name": "COSMOS 2251 DEB",
        "group": "cosmos-2251-debris",
        "lat": 64.14699766203896,
        "lon": 85.58138500961036,
        "alt_km": 705.0015200997259,
        "timestamp": "2025-12-04T09:47:37.916842+00:00",
        "meta_object_name": "COSMOS 2251 DEB",
        "meta_object_id": "1993-036AXV",
        "meta_epoch": "2025-12-02T21:15:38.245248",
        "meta_mean_motion": 14.58601869,
        "meta_eccentricity": 0.00452241,
        "meta_inclination": 74.0244,
        "meta_ra_of_asc_node": 52.2381,
        "meta_arg_of_pericenter": 188.8228,
        "meta_mean_anomaly": 171.2148,
        "meta_ephemeris_type": 0,
        "meta_classification_type": "U",
        "meta_norad_cat_id": 36058,
        "meta_element_set_no": 999,
        "meta_rev_at_epoch": 65967,
        "meta_bstar": 0.00090546257,
        "meta_mean_motion_dot": 4.247e-05,
        "meta_mean_motion_ddot": 0,
        "tle_line1": "1 36058U 93036AXV 25336.88585932  .00004247  00000+0  90546-3 0  9993",
        "tle_line2": "2 36058  74.0244  52.2381 0045224 188.8228 171.2148 14.58601869659675"
      },
      "geometry": {
        "type": "Point",
        "coordinates": [
          85.58138500961036,
          64.14699766203896
        ]
      }
    },
    {
      "type": "Feature",
      "properties": {
        "norad_id": 36060,
        "name": "COSMOS 2251 DEB",
        "group": "cosmos-2251-debris",
        "lat": 62.695970931271845,
        "lon": 36.32208059191254,
        "alt_km": 751.5810726684549,
        "timestamp": "2025-12-04T09:47:37.916852+00:00",
        "meta_object_name": "COSMOS 2251 DEB",
        "meta_object_id": "1993-036AXX",
        "meta_epoch": "2025-12-03T11:37:45.034464",
        "meta_mean_motion": 14.41963836,
        "meta_eccentricity": 0.00149674,
        "meta_inclination": 74.0291,
        "meta_ra_of_asc_node": 251.7281,
        "meta_arg_of_pericenter": 349.8099,
        "meta_mean_anomaly": 10.2751,
        "meta_ephemeris_type": 0,
        "meta_classification_type": "U",
        "meta_norad_cat_id": 36060,
        "meta_element_set_no": 999,
        "meta_rev_at_epoch": 84876,
        "meta_bstar": 0.00052284347,
        "meta_mean_motion_dot": 1.69e-05,
        "meta_mean_motion_ddot": 0,
        "tle_line1": "1 36060U 93036AXX 25337.48454901  .00001690  00000+0  52284-3 0  9990",
        "tle_line2": "2 36060  74.0291 251.7281 0014967 349.8099  10.2751 14.41963836848769"
      },
      "geometry": {
        "type": "Point",
        "coordinates": [
          36.32208059191254,
          62.695970931271845
        ]
      }
    },
    {
      "type": "Feature",
      "properties": {
        "norad_id": 36061,
        "name": "COSMOS 2251 DEB",
        "group": "cosmos-2251-debris",
        "lat": -2.4927150071747444,
        "lon": -164.2746930797914,
        "alt_km": 776.2234471507345,
        "timestamp": "2025-12-04T09:47:37.916862+00:00",
        "meta_object_name": "COSMOS 2251 DEB",
        "meta_object_id": "1993-036AXY",
        "meta_epoch": "2025-12-03T19:33:06.949728",
        "meta_mean_motion": 14.33686991,
        "meta_eccentricity": 0.00369257,
        "meta_inclination": 74.0246,
        "meta_ra_of_asc_node": 16.0964,
        "meta_arg_of_pericenter": 106.9115,
        "meta_mean_anomaly": 253.609,
        "meta_ephemeris_type": 0,
        "meta_classification_type": "U",
        "meta_norad_cat_id": 36061,
        "meta_element_set_no": 999,
        "meta_rev_at_epoch": 64976,
        "meta_bstar": 0.00048994099,
        "meta_mean_motion_dot": 1.344e-05,
        "meta_mean_motion_ddot": 0,
        "tle_line1": "1 36061U 93036AXY 25337.81466377  .00001344  00000+0  48994-3 0  9997",
        "tle_line2": "2 36061  74.0246  16.0964 0036925 106.9115 253.6090 14.33686991649762"
      },
      "geometry": {
        "type": "Point",
        "coordinates": [
          -164.2746930797914,
          -2.4927150071747444
        ]
      }
    },
    {
      "type": "Feature",
      "properties": {
        "norad_id": 36073,
        "name": "COSMOS 2251 DEB",
        "group": "cosmos-2251-debris",
        "lat": -57.37887845607114,
        "lon": -175.5921651147585,
        "alt_km": 798.3914677349767,
        "timestamp": "2025-12-04T09:47:37.916872+00:00",
        "meta_object_name": "COSMOS 2251 DEB",
        "meta_object_id": "1993-036AYL",
        "meta_epoch": "2025-12-02T18:11:25.029312",
        "meta_mean_motion": 14.34931351,
        "meta_eccentricity": 0.00234518,
        "meta_inclination": 74.0318,
        "meta_ra_of_asc_node": 340.8572,
        "meta_arg_of_pericenter": 51.9571,
        "meta_mean_anomaly": 308.3693,
        "meta_ephemeris_type": 0,
        "meta_classification_type": "U",
        "meta_norad_cat_id": 36073,
        "meta_element_set_no": 999,
        "meta_rev_at_epoch": 70064,
        "meta_bstar": 0.00029028111,
        "meta_mean_motion_dot": 8.02e-06,
        "meta_mean_motion_ddot": 0,
        "tle_line1": "1 36073U 93036AYL 25336.75792858  .00000802  00000+0  29028-3 0  9993",
        "tle_line2": "2 36073  74.0318 340.8572 0023451  51.9571 308.3693 14.34931351700649"
      },
      "geometry": {
        "type": "Point",
        "coordinates": [
          -175.5921651147585,
          -57.37887845607114
        ]
      }
    },
    {
      "type": "Feature",
      "properties": {
        "norad_id": 36074,
        "name": "COSMOS 2251 DEB",
        "group": "cosmos-2251-debris",
        "lat": 59.72640515824842,
        "lon": 146.55199378855056,
        "alt_km": 713.1210334044699,
        "timestamp": "2025-12-04T09:47:37.916882+00:00",
        "meta_object_name": "COSMOS 2251 DEB",
        "meta_object_id": "1993-036AYM",
        "meta_epoch": "2025-12-03T11:38:27.519072",
        "meta_mean_motion": 14.43635924,
        "meta_eccentricity": 0.00422946,
        "meta_inclination": 73.9916,
        "meta_ra_of_asc_node": 357.7317,
        "meta_arg_of_pericenter": 92.4077,
        "meta_mean_anomaly": 268.1923,
        "meta_ephemeris_type": 0,
        "meta_classification_type": "U",
        "meta_norad_cat_id": 36074,
        "meta_element_set_no": 999,
        "meta_rev_at_epoch": 85776,
        "meta_bstar": 0.0012216694,
        "meta_mean_motion_dot": 4.165e-05,
        "meta_mean_motion_ddot": 0,
        "tle_line1": "1 36074U 93036AYM 25337.48504073  .00004165  00000+0  12217-2 0  9992",
        "tle_line2": "2 36074  73.9916 357.7317 0042294  92.4077 268.1923 14.43635924857765"
      },
      "geometry": {
        "type": "Point",
        "coordinates": [
          146.55199378855056,
          59.72640515824842
        ]
      }
    },
    {
      "type": "Feature",
      "properties": {
        "norad_id": 36366,
        "name": "COSMOS 2251 DEB",
        "group": "cosmos-2251-debris",
        "lat": 2.0605642361383993,
        "lon": -71.13873001752869,
        "alt_km": 736.2050633546705,
        "timestamp": "2025-12-04T09:47:37.916892+00:00",
        "meta_object_name": "COSMOS 2251 DEB",
        "meta_object_id": "1993-036AYT",
        "meta_epoch": "2025-12-02T05:51:07.218720",
        "meta_mean_motion": 14.33192884,
        "meta_eccentricity": 0.0091167,
        "meta_inclination": 74.0653,
        "meta_ra_of_asc_node": 292.2194,
        "meta_arg_of_pericenter": 322.5756,
        "meta_mean_anomaly": 36.9067,
        "meta_ephemeris_type": 0,
        "meta_classification_type": "U",
        "meta_norad_cat_id": 36366,
        "meta_element_set_no": 999,
        "meta_rev_at_epoch": 86138,
        "meta_bstar": 0.0027816,
        "meta_mean_motion_dot": 7.987e-05,
        "meta_mean_motion_ddot": 0,
        "tle_line1": "1 36366U 93036AYT 25336.24383355  .00007987  00000+0  27816-2 0  9993",
        "tle_line2": "2 36366  74.0653 292.2194 0091167 322.5756  36.9067 14.33192884861384"
      },
      "geometry": {
        "type": "Point",
        "coordinates": [
          -71.13873001752869,
          2.0605642361383993
        ]
      }
    },
    {
      "type": "Feature",
      "properties": {
        "norad_id": 36367,
        "name": "COSMOS 2251 DEB",
        "group": "cosmos-2251-debris",
        "lat": 9.121413107625434,
        "lon": -111.90252985755941,
        "alt_km": 815.2489632208553,
        "timestamp": "2025-12-04T09:47:37.916902+00:00",
        "meta_object_name": "COSMOS 2251 DEB",
        "meta_object_id": "1993-036AYU",
        "meta_epoch": "2025-12-01T12:28:20.175744",
        "meta_mean_motion": 13.86234419,
        "meta_eccentricity": 0.02628434,
        "meta_inclination": 74.101,
        "meta_ra_of_asc_node": 250.3439,
        "meta_arg_of_pericenter": 325.6692,
        "meta_mean_anomaly": 32.7682,
        "meta_ephemeris_type": 0,
        "meta_classification_type": "U",
        "meta_norad_cat_id": 36367,
        "meta_element_set_no": 999,
        "meta_rev_at_epoch": 57374,
        "meta_bstar": 0.0014810929,
        "meta_mean_motion_dot": 2.22e-05,
        "meta_mean_motion_ddot": 0,
        "tle_line1": "1 36367U 93036AYU 25335.51967796  .00002220  00000+0  14811-2 0  9996",
        "tle_line2": "2 36367  74.1010 250.3439 0262843 325.6692  32.7682 13.86234419573749"
      },
      "geometry": {
        "type": "Point",
        "coordinates": [
          -111.90252985755941,
          9.121413107625434
        ]
      }
    }
  ]
}